ONEWEB-0122             
1 47268U 20100L   25341.85721707 -.00000344  00000+0 -99276-3 0  9990
2 47268  87.8944  28.6630 0001778  92.6023 267.5309 13.12444040239457
ONEWEB-0123             
1 47269U 20100M   25341.85249489 -.00000345  00000+0 -99545-3 0  9993
2 47269  87.8936  28.6906 0001690 101.4074 258.7245 13.12442939239594
ONEWEB-0124             
1 47270U 20100N   25341.68866139 -.00000140  00000+0 -42536-3 0  9994
2 47270  87.8935  28.7273 0001882 101.4263 258.7077 13.12442964239452
ONEWEB-0125             
1 47271U 20100P   25341.66595329  .00000448  00000+0  12098-2 0  9991
2 47271  87.8941  28.6945 0001746 106.0900 254.0421 13.12444043239512
ONEWEB-0126             
1 47272U 20100Q   25341.83965555  .00000014  00000+0  23039-5 0  9992
2 47272  87.8942  28.6833 0001610  96.4441 263.6871 13.12442510239604
ONEWEB-0127             
1 47273U 20100R   25341.88169545  .00000372  00000+0  99895-3 0  9991
2 47273  87.8935  28.6853 0001707  95.1005 265.0318 13.12444951239634
ONEWEB-0128             
1 47274U 20100S   25341.67568756  .00000281  00000+0  74440-3 0  9994
2 47274  87.8930  28.7435 0001924  90.9620 269.1729 13.12442929239627
ONEWEB-0129             
1 47275U 20100T   25341.88330562  .00000224  00000+0  58836-3 0  9998
2 47275  87.8942  28.6552 0001139  59.8032 300.3209 13.12444880239583
ONEWEB-0130             
1 47276U 20100U   25341.83465286  .00000170  00000+0  43689-3 0  9996
2 47276  87.8942  28.6603 0001770  93.0824 267.0507 13.12442748239548
ONEWEB-0131             
1 47277U 20100V   25341.83140941  .00000244  00000+0  64238-3 0  9990
2 47277  87.8942  28.6912 0001813  96.7011 263.4324 13.12443010239582
ONEWEB-0132             
1 47278U 20100W   25341.86059742 -.00000375  00000+0 -10784-2 0  9995
2 47278  87.8946  28.6869 0001829  97.0397 263.0940 13.12444483239480
ONEWEB-0133             
1 47279U 20100X   25341.64797052  .00000111  00000+0  27225-3 0  9990
2 47279  87.8941  28.6912 0001876  95.7813 264.3529 13.12445671239617
ONEWEB-0134             
1 47280U 20100Y   25341.84600083 -.00000222  00000+0 -65292-3 0  9992
2 47280  87.8942  28.6468 0001802  88.9496 271.1839 13.12443720239619
ONEWEB-0135             
1 47281U 20100Z   25341.89304593  .00000462  00000+0  12492-2 0  9992
2 47281  87.8940  28.6773 0001956  87.1196 273.0157 13.12441787239643
ONEWEB-0136             
1 47282U 20100AA  25341.83627394  .00000067  00000+0  15158-3 0  9998
2 47282  87.8946  28.6580 0001838  84.3750 275.7588 13.12442250239564
ONEWEB-0137             
1 47283U 20100AB  25341.87032757 -.00000223  00000+0 -65485-3 0  9990
2 47283  87.8945  28.6567 0001563 100.8087 259.3218 13.12444448239470
ONEWEB-0138             
1 47284U 20100AC  25341.84924935 -.00000276  00000+0 -80247-3 0  9997
2 47284  87.8940  28.6699 0001742  91.6864 268.4464 13.12443167239551
