[{"OBJECT_NAME":"ONEWEB-0122","OBJECT_ID":"2020-100L","EPOCH":"2025-12-07T20:34:23.554848","MEAN_MOTION":13.1244404,"ECCENTRICITY":0.00017789,"INCLINATION":87.8944,"RA_OF_ASC_NODE":28.663,"ARG_OF_PERICENTER":92.6023,"MEAN_ANOMALY":267.5309,"EPHEMERIS_TYPE":0,"CLASSIFICATION_TYPE":"U","NORAD_CAT_ID":47268,"ELEMENT_SET_NO":999,"REV_AT_EPOCH":23945,"BSTAR":-0.00099275859,"MEAN_MOTION_DOT":-3.44e-6,"MEAN_MOTION_DDOT":0},{"OBJECT_NAME":"ONEWEB-0123","OBJECT_ID":"2020-100M","EPOCH":"2025-12-07T20:27:35.558496","MEAN_MOTION":13.12442939,"ECCENTRICITY":0.00016909,"INCLINATION":87.8936,"RA_OF_ASC_NODE":28.6906,"ARG_OF_PERICENTER":101.4074,"MEAN_ANOMALY":258.7245,"EPHEMERIS_TYPE":0,"CLASSIFICATION_TYPE":"U","NORAD_CAT_ID":47269,"ELEMENT_SET_NO":999,"REV_AT_EPOCH":23959,"BSTAR":-0.00099545359,"MEAN_MOTION_DOT":-3.45e-6,"MEAN_MOTION_DDOT":0},{"OBJECT_NAME":"ONEWEB-0124","OBJECT_ID":"2020-100N","EPOCH":"2025-12-07T16:31:40.344096","MEAN_MOTION":13.12442964,"ECCENTRICITY":0.00018822,"INCLINATION":87.8935,"RA_OF_ASC_NODE":28.7273,"ARG_OF_PERICENTER":101.4263,"MEAN_ANOMALY":258.7077,"EPHEMERIS_TYPE":0,"CLASSIFICATION_TYPE":"U","NORAD_CAT_ID":47270,"ELEMENT_SET_NO":999,"REV_AT_EPOCH":23945,"BSTAR":-0.00042536213,"MEAN_MOTION_DOT":-1.4e-6,"MEAN_MOTION_DDOT":0},{"OBJECT_NAME":"ONEWEB-0125","OBJECT_ID":"2020-100P","EPOCH":"2025-12-07T15:58:58.364256","MEAN_MOTION":13.12444043,"ECCENTRICITY":0.00017469,"INCLINATION":87.8941,"RA_OF_ASC_NODE":28.6945,"ARG_OF_PERICENTER":106.09,"MEAN_ANOMALY":254.0421,"EPHEMERIS_TYPE":0,"CLASSIFICATION_TYPE":"U","NORAD_CAT_ID":47271,"ELEMENT_SET_NO":999,"REV_AT_EPOCH":23951,"BSTAR":0.0012097823,"MEAN_MOTION_DOT":4.48e-6,"MEAN_MOTION_DDOT":0},{"OBJECT_NAME":"ONEWEB-0126","OBJECT_ID":"2020-100Q","EPOCH":"2025-12-07T20:09:06.239520","MEAN_MOTION":13.1244251,"ECCENTRICITY":0.00016102,"INCLINATION":87.8942,"RA_OF_ASC_NODE":28.6833,"ARG_OF_PERICENTER":96.4441,"MEAN_ANOMALY":263.6871,"EPHEMERIS_TYPE":0,"CLASSIFICATION_TYPE":"U","NORAD_CAT_ID":47272,"ELEMENT_SET_NO":999,"REV_AT_EPOCH":23960,"BSTAR":2.303879e-6,"MEAN_MOTION_DOT":1.4e-7,"MEAN_MOTION_DDOT":0},{"OBJECT_NAME":"ONEWEB-0127","OBJECT_ID":"2020-100R","EPOCH":"2025-12-07T21:09:38.486880","MEAN_MOTION":13.12444951,"ECCENTRICITY":0.0001707,"INCLINATION":87.8935,"RA_OF_ASC_NODE":28.6853,"ARG_OF_PERICENTER":95.1005,"MEAN_ANOMALY":265.0318,"EPHEMERIS_TYPE":0,"CLASSIFICATION_TYPE":"U","NORAD_CAT_ID":47273,"ELEMENT_SET_NO":999,"REV_AT_EPOCH":23963,"BSTAR":0.00099894891,"MEAN_MOTION_DOT":3.72e-6,"MEAN_MOTION_DDOT":0},{"OBJECT_NAME":"ONEWEB-0128","OBJECT_ID":"2020-100S","EPOCH":"2025-12-07T16:12:59.405184","MEAN_MOTION":13.12442929,"ECCENTRICITY":0.00019246,"INCLINATION":87.893,"RA_OF_ASC_NODE":28.7435,"ARG_OF_PERICENTER":90.962,"MEAN_ANOMALY":269.1729,"EPHEMERIS_TYPE":0,"CLASSIFICATION_TYPE":"U","NORAD_CAT_ID":47274,"ELEMENT_SET_NO":999,"REV_AT_EPOCH":23962,"BSTAR":0.00074439809,"MEAN_MOTION_DOT":2.81e-6,"MEAN_MOTION_DDOT":0},{"OBJECT_NAME":"ONEWEB-0129","OBJECT_ID":"2020-100T","EPOCH":"2025-12-07T21:11:57.605568","MEAN_MOTION":13.1244488,"ECCENTRICITY":0.00011392,"INCLINATION":87.8942,"RA_OF_ASC_NODE":28.6552,"ARG_OF_PERICENTER":59.8032,"MEAN_ANOMALY":300.3209,"EPHEMERIS_TYPE":0,"CLASSIFICATION_TYPE":"U","NORAD_CAT_ID":47275,"ELEMENT_SET_NO":999,"REV_AT_EPOCH":23958,"BSTAR":0.00058836093,"MEAN_MOTION_DOT":2.24e-6,"MEAN_MOTION_DDOT":0},{"OBJECT_NAME":"ONEWEB-0130","OBJECT_ID":"2020-100U","EPOCH":"2025-12-07T20:01:54.007104","MEAN_MOTION":13.12442748,"ECCENTRICITY":0.00017706,"INCLINATION":87.8942,"RA_OF_ASC_NODE":28.6603,"ARG_OF_PERICENTER":93.0824,"MEAN_ANOMALY":267.0507,"EPHEMERIS_TYPE":0,"CLASSIFICATION_TYPE":"U","NORAD_CAT_ID":47276,"ELEMENT_SET_NO":999,"REV_AT_EPOCH":23954,"BSTAR":0.00043688862,"MEAN_MOTION_DOT":1.7e-6,"MEAN_MOTION_DDOT":0},{"OBJECT_NAME":"ONEWEB-0131","OBJECT_ID":"2020-100V","EPOCH":"2025-12-07T19:57:13.773024","MEAN_MOTION":13.1244301,"ECCENTRICITY":0.00018133,"INCLINATION":87.8942,"RA_OF_ASC_NODE":28.6912,"ARG_OF_PERICENTER":96.7011,"MEAN_ANOMALY":263.4324,"EPHEMERIS_TYPE":0,"CLASSIFICATION_TYPE":"U","NORAD_CAT_ID":47277,"ELEMENT_SET_NO":999,"REV_AT_EPOCH":23958,"BSTAR":0.00064238487,"MEAN_MOTION_DOT":2.44e-6,"MEAN_MOTION_DDOT":0},{"OBJECT_NAME":"ONEWEB-0132","OBJECT_ID":"2020-100W","EPOCH":"2025-12-07T20:39:15.617088","MEAN_MOTION":13.12444483,"ECCENTRICITY":0.00018297,"INCLINATION":87.8946,"RA_OF_ASC_NODE":28.6869,"ARG_OF_PERICENTER":97.0397,"MEAN_ANOMALY":263.094,"EPHEMERIS_TYPE":0,"CLASSIFICATION_TYPE":"U","NORAD_CAT_ID":47278,"ELEMENT_SET_NO":999,"REV_AT_EPOCH":23948,"BSTAR":-0.0010783885,"MEAN_MOTION_DOT":-3.75e-6,"MEAN_MOTION_DDOT":0},{"OBJECT_NAME":"ONEWEB-0133","OBJECT_ID":"2020-100X","EPOCH":"2025-12-07T15:33:04.652928","MEAN_MOTION":13.12445671,"ECCENTRICITY":0.00018764,"INCLINATION":87.8941,"RA_OF_ASC_NODE":28.6912,"ARG_OF_PERICENTER":95.7813,"MEAN_ANOMALY":264.3529,"EPHEMERIS_TYPE":0,"CLASSIFICATION_TYPE":"U","NORAD_CAT_ID":47279,"ELEMENT_SET_NO":999,"REV_AT_EPOCH":23961,"BSTAR":0.00027224996,"MEAN_MOTION_DOT":1.11e-6,"MEAN_MOTION_DDOT":0},{"OBJECT_NAME":"ONEWEB-0134","OBJECT_ID":"2020-100Y","EPOCH":"2025-12-07T20:18:14.471712","MEAN_MOTION":13.1244372,"ECCENTRICITY":0.00018025,"INCLINATION":87.8942,"RA_OF_ASC_NODE":28.6468,"ARG_OF_PERICENTER":88.9496,"MEAN_ANOMALY":271.1839,"EPHEMERIS_TYPE":0,"CLASSIFICATION_TYPE":"U","NORAD_CAT_ID":47280,"ELEMENT_SET_NO":999,"REV_AT_EPOCH":23961,"BSTAR":-0.00065292226,"MEAN_MOTION_DOT":-2.22e-6,"MEAN_MOTION_DDOT":0},{"OBJECT_NAME":"ONEWEB-0135","OBJECT_ID":"2020-100Z","EPOCH":"2025-12-07T21:25:59.168352","MEAN_MOTION":13.12441787,"ECCENTRICITY":0.00019563,"INCLINATION":87.894,"RA_OF_ASC_NODE":28.6773,"ARG_OF_PERICENTER":87.1196,"MEAN_ANOMALY":273.0157,"EPHEMERIS_TYPE":0,"CLASSIFICATION_TYPE":"U","NORAD_CAT_ID":47281,"ELEMENT_SET_NO":999,"REV_AT_EPOCH":23964,"BSTAR":0.0012491517,"MEAN_MOTION_DOT":4.62e-6,"MEAN_MOTION_DDOT":0},{"OBJECT_NAME":"ONEWEB-0136","OBJECT_ID":"2020-100AA","EPOCH":"2025-12-07T20:04:14.068416","MEAN_MOTION":13.1244225,"ECCENTRICITY":0.00018386,"INCLINATION":87.8946,"RA_OF_ASC_NODE":28.658,"ARG_OF_PERICENTER":84.375,"MEAN_ANOMALY":275.7588,"EPHEMERIS_TYPE":0,"CLASSIFICATION_TYPE":"U","NORAD_CAT_ID":47282,"ELEMENT_SET_NO":999,"REV_AT_EPOCH":23956,"BSTAR":0.00015158063,"MEAN_MOTION_DOT":6.7e-7,"MEAN_MOTION_DDOT":0},{"OBJECT_NAME":"ONEWEB-0137","OBJECT_ID":"2020-100AB","EPOCH":"2025-12-07T20:53:16.302048","MEAN_MOTION":13.12444448,"ECCENTRICITY":0.00015636,"INCLINATION":87.8945,"RA_OF_ASC_NODE":28.6567,"ARG_OF_PERICENTER":100.8087,"MEAN_ANOMALY":259.3218,"EPHEMERIS_TYPE":0,"CLASSIFICATION_TYPE":"U","NORAD_CAT_ID":47283,"ELEMENT_SET_NO":999,"REV_AT_EPOCH":23947,"BSTAR":-0.00065484972,"MEAN_MOTION_DOT":-2.23e-6,"MEAN_MOTION_DDOT":0},{"OBJECT_NAME":"ONEWEB-0138","OBJECT_ID":"2020-100AC","EPOCH":"2025-12-07T20:22:55.143840","MEAN_MOTION":13.12443167,"ECCENTRICITY":0.00017423,"INCLINATION":87.894,"RA_OF_ASC_NODE":28.6699,"ARG_OF_PERICENTER":91.6864,"MEAN_ANOMALY":268.4464,"EPHEMERIS_TYPE":0,"CLASSIFICATION_TYPE":"U","NORAD_CAT_ID":47284,"ELEMENT_SET_NO":999,"REV_AT_EPOCH":23955,"BSTAR":-0.00080247141,"MEAN_MOTION_DOT":-2.76e-6,"MEAN_MOTION_DDOT":0}]
